[
    {
        "Altitude(m)": 554113.7378350687,
        "Argument of Periapsis(deg)": 0.026491964442854003,
        "Eccentricity": 0.0,
        "Inclination(deg)": 53.0,
        "Latitude(deg)": 1.065724306451935,
        "Longitude(deg)": -88.9829217148599,
        "Mean Anomaly(deg)": -181.4517285296896,
        "RAAN(deg)": 194.9605734741121,
        "Satellite Name": "Starlink Shell 1 866",
        "Satellite Number": 866,
        "Semi-Major Axis(m)": 6931778.249405717,
        "Time(s)": 760
    },
    {
        "Altitude(m)": 554174.5878014882,
        "Argument of Periapsis(deg)": 0.02684054292236524,
        "Eccentricity": 0.0,
        "Inclination(deg)": 53.0,
        "Latitude(deg)": 0.5617997683881311,
        "Longitude(deg)": -88.64746553179093,
        "Mean Anomaly(deg)": -180.8248973261329,
        "RAAN(deg)": 194.96005470403458,
        "Satellite Name": "Starlink Shell 1 866",
        "Satellite Number": 866,
        "Semi-Major Axis(m)": 6931778.249405717,
        "Time(s)": 770
    },
    {
        "Altitude(m)": 554238.2420077928,
        "Argument of Periapsis(deg)": 0.027189121401876473,
        "Eccentricity": 0.0,
        "Inclination(deg)": 53.0,
        "Latitude(deg)": 0.05785926879126216,
        "Longitude(deg)": -88.31208096611374,
        "Mean Anomaly(deg)": -180.19806612257622,
        "RAAN(deg)": 194.95953593395714,
        "Satellite Name": "Starlink Shell 1 866",
        "Satellite Number": 866,
        "Semi-Major Axis(m)": 6931778.249405717,
        "Time(s)": 780
    },
    {
        "Altitude(m)": 554304.6932951174,
        "Argument of Periapsis(deg)": 0.02753769988138771,
        "Eccentricity": 0.0,
        "Inclination(deg)": 53.0,
        "Latitude(deg)": -0.4460742954389012,
        "Longitude(deg)": -87.97670998197852,
        "Mean Anomaly(deg)": -179.57123491901953,
        "RAAN(deg)": 194.95901716387962,
        "Satellite Name": "Starlink Shell 1 866",
        "Satellite Number": 866,
        "Semi-Major Axis(m)": 6931778.249405717,
        "Time(s)": 790
    },
    {
        "Altitude(m)": 554373.9331495238,
        "Argument of Periapsis(deg)": 0.02788627836089895,
        "Eccentricity": 0.0,
        "Inclination(deg)": 53.0,
        "Latitude(deg)": -0.9499780325297585,
        "Longitude(deg)": -87.64129505639934,
        "Mean Anomaly(deg)": -178.9444037154628,
        "RAAN(deg)": 194.9584983938022,
        "Satellite Name": "Starlink Shell 1 866",
        "Satellite Number": 866,
        "Semi-Major Axis(m)": 6931778.249405717,
        "Time(s)": 800
    },
    {
        "Altitude(m)": 554445.9517034417,
        "Argument of Periapsis(deg)": 0.02823485684041019,
        "Eccentricity": 0.0,
        "Inclination(deg)": 53.0,
        "Latitude(deg)": -1.4538290441597503,
        "Longitude(deg)": -87.30577864974023,
        "Mean Anomaly(deg)": -178.31757251190604,
        "RAAN(deg)": 194.95797962372473,
        "Satellite Name": "Starlink Shell 1 866",
        "Satellite Number": 866,
        "Semi-Major Axis(m)": 6931778.249405717,
        "Time(s)": 810
    },
    {
        "Altitude(m)": 554520.7377378588,
        "Argument of Periapsis(deg)": 0.028583435319921423,
        "Eccentricity": 0.0,
        "Inclination(deg)": 53.0,
        "Latitude(deg)": -1.9576044137738695,
        "Longitude(deg)": -86.97010267620121,
        "Mean Anomaly(deg)": -177.69074130834937,
        "RAAN(deg)": 194.95746085364723,
        "Satellite Name": "Starlink Shell 1 866",
        "Satellite Number": 866,
        "Semi-Major Axis(m)": 6931778.249405717,
        "Time(s)": 820
    },
    {
        "Altitude(m)": 554598.2786851705,
        "Argument of Periapsis(deg)": 0.028932013799432665,
        "Eccentricity": 0.0,
        "Inclination(deg)": 53.0,
        "Latitude(deg)": -2.461281194880817,
        "Longitude(deg)": -86.63420948716691,
        "Mean Anomaly(deg)": -177.06391010479263,
        "RAAN(deg)": 194.95694208356977,
        "Satellite Name": "Starlink Shell 1 866",
        "Satellite Number": 866,
        "Semi-Major Axis(m)": 6931778.249405717,
        "Time(s)": 830
    },
    {
        "Altitude(m)": 554678.5606326633,
        "Argument of Periapsis(deg)": 0.029280592278943897,
        "Eccentricity": 0.0,
        "Inclination(deg)": 53.0,
        "Latitude(deg)": -2.964836399319454,
        "Longitude(deg)": -86.29804134166662,
        "Mean Anomaly(deg)": -176.43707890123594,
        "RAAN(deg)": 194.9564233134923,
        "Satellite Name": "Starlink Shell 1 866",
        "Satellite Number": 866,
        "Semi-Major Axis(m)": 6931778.249405717,
        "Time(s)": 840
    },
    {
        "Altitude(m)": 554761.5683267643,
        "Argument of Periapsis(deg)": 0.029629170758455132,
        "Eccentricity": 0.0,
        "Inclination(deg)": 53.0,
        "Latitude(deg)": -3.468246985484675,
        "Longitude(deg)": -85.96153987680934,
        "Mean Anomaly(deg)": -175.8102476976792,
        "RAAN(deg)": 194.95590454341482,
        "Satellite Name": "Starlink Shell 1 866",
        "Satellite Number": 866,
        "Semi-Major Axis(m)": 6931778.249405717,
        "Time(s)": 850
    },
    {
        "Altitude(m)": 554847.2851778372,
        "Argument of Periapsis(deg)": 0.02997774923796637,
        "Eccentricity": 0.0,
        "Inclination(deg)": 53.0,
        "Latitude(deg)": -3.9714898464997157,
        "Longitude(deg)": -85.62464725915834,
        "Mean Anomaly(deg)": -175.1834164941225,
        "RAAN(deg)": 194.95538577333735,
        "Satellite Name": "Starlink Shell 1 866",
        "Satellite Number": 866,
        "Semi-Major Axis(m)": 6931778.249405717,
        "Time(s)": 860
    },
    {
        "Altitude(m)": 554935.693265772,
        "Argument of Periapsis(deg)": 0.030326327717477602,
        "Eccentricity": 0.0,
        "Inclination(deg)": 53.0,
        "Latitude(deg)": -4.474541798325568,
        "Longitude(deg)": -85.28730481461119,
        "Mean Anomaly(deg)": -174.5565852905658,
        "RAAN(deg)": 194.95486700325986,
        "Satellite Name": "Starlink Shell 1 866",
        "Satellite Number": 866,
        "Semi-Major Axis(m)": 6931778.249405717,
        "Time(s)": 870
    },
    {
        "Altitude(m)": 555026.7733461513,
        "Argument of Periapsis(deg)": 0.030674906196988847,
        "Eccentricity": 0.0,
        "Inclination(deg)": 53.0,
        "Latitude(deg)": -4.977379567793965,
        "Longitude(deg)": -84.94945417969161,
        "Mean Anomaly(deg)": -173.92975408700906,
        "RAAN(deg)": 194.95434823318237,
        "Satellite Name": "Starlink Shell 1 866",
        "Satellite Number": 866,
        "Semi-Major Axis(m)": 6931778.249405717,
        "Time(s)": 880
    },
    {
        "Altitude(m)": 555120.5048571217,
        "Argument of Periapsis(deg)": 0.031023484676500086,
        "Eccentricity": 0.0,
        "Inclination(deg)": 53.0,
        "Latitude(deg)": -5.479979780554477,
        "Longitude(deg)": -84.61103677181812,
        "Mean Anomaly(deg)": -173.3029228834524,
        "RAAN(deg)": 194.9538294631049,
        "Satellite Name": "Starlink Shell 1 866",
        "Satellite Number": 866,
        "Semi-Major Axis(m)": 6931778.249405717,
        "Time(s)": 890
    },
    {
        "Altitude(m)": 555216.865926908,
        "Argument of Periapsis(deg)": 0.03137206315601132,
        "Eccentricity": 0.0,
        "Inclination(deg)": 53.0,
        "Latitude(deg)": -5.982318948923474,
        "Longitude(deg)": -84.27199325951582,
        "Mean Anomaly(deg)": -172.67609167989562,
        "RAAN(deg)": 194.95331069302748,
        "Satellite Name": "Starlink Shell 1 866",
        "Satellite Number": 866,
        "Semi-Major Axis(m)": 6931778.249405717,
        "Time(s)": 900
    },
    {
        "Altitude(m)": 555315.8333819974,
        "Argument of Periapsis(deg)": 0.03172064163552255,
        "Eccentricity": 0.0,
        "Inclination(deg)": 53.0,
        "Latitude(deg)": -6.484373459622819,
        "Longitude(deg)": -83.93226454543947,
        "Mean Anomaly(deg)": -172.04926047633896,
        "RAAN(deg)": 194.95279192294996,
        "Satellite Name": "Starlink Shell 1 866",
        "Satellite Number": 866,
        "Semi-Major Axis(m)": 6931778.249405717,
        "Time(s)": 910
    },
    {
        "Altitude(m)": 555417.3827559585,
        "Argument of Periapsis(deg)": 0.0320692201150338,
        "Eccentricity": 0.0,
        "Inclination(deg)": 53.0,
        "Latitude(deg)": -6.98611956139864,
        "Longitude(deg)": -83.59179123645333,
        "Mean Anomaly(deg)": -171.4224292727822,
        "RAAN(deg)": 194.95227315287252,
        "Satellite Name": "Starlink Shell 1 866",
        "Satellite Number": 866,
        "Semi-Major Axis(m)": 6931778.249405717,
        "Time(s)": 920
    },
    {
        "Altitude(m)": 555521.488298907,
        "Argument of Periapsis(deg)": 0.032417798594545036,
        "Eccentricity": 0.0,
        "Inclination(deg)": 53.0,
        "Latitude(deg)": -7.487533352506259,
        "Longitude(deg)": -83.25051311364028,
        "Mean Anomaly(deg)": -170.7955980692255,
        "RAAN(deg)": 194.95175438279506,
        "Satellite Name": "Starlink Shell 1 866",
        "Satellite Number": 866,
        "Semi-Major Axis(m)": 6931778.249405717,
        "Time(s)": 930
    },
    {
        "Altitude(m)": 555628.1229876302,
        "Argument of Periapsis(deg)": 0.03276637707405627,
        "Eccentricity": 0.0,
        "Inclination(deg)": 53.0,
        "Latitude(deg)": -7.988590768051905,
        "Longitude(deg)": -82.90837011510702,
        "Mean Anomaly(deg)": -170.16876686566877,
        "RAAN(deg)": 194.95123561271757,
        "Satellite Name": "Starlink Shell 1 866",
        "Satellite Number": 866,
        "Semi-Major Axis(m)": 6931778.249405717,
        "Time(s)": 940
    }
]